{"type": "FeatureCollection", "features": [ {"type": "Feature", "properties": {"norad_id": 39122, "name": "EUTELSAT 117 WEST A", "group": "eutelsat", "lat": -0.008028208048022373, "lon": -28.430420024229978, "alt_km": 35778.72781567536, "timestamp": "2025-12-27T23:26:37.024953+00:00", "meta": {"OBJECT_NAME": "EUTELSAT 117 WEST A", "OBJECT_ID": "2013-012A", "EPOCH": "2025-12-27T09:01:20.682048", "MEAN_MOTION": 1.00270821, "ECCENTRICITY": 0.000289, "INCLINATION": 0.0143, "RA_OF_ASC_NODE": 335.6574, "ARG_OF_PERICENTER": 304.3654, "MEAN_ANOMALY": 194.6196, "EPHEMERIS_TYPE": 0, "CLASSIFICATION_TYPE": "U", "NORAD_CAT_ID": 39122, "ELEMENT_SET_NO": 999, "REV_AT_EPOCH": 4671, "BSTAR": 0, "MEAN_MOTION_DOT": 1e-07, "MEAN_MOTION_DDOT": 0}, "tle": {"line1": "1 39122U 13012A   25361.37593382  .00000010  00000+0  00000+0 0  9990", "line2": "2 39122   0.0143 335.6574 0002890 304.3654 194.6196  1.00270821 46719"}}, "geometry": {"type": "Point", "coordinates": [-28.430420024229978, -0.008028208048022373]}}, {"type": "Feature", "properties": {"norad_id": 39163, "name": "EUTELSAT 7B", "group": "eutelsat", "lat": 0.0860706686792969, "lon": 95.38184856054912, "alt_km": 35799.81657631065, "timestamp": "2025-12-27T23:26:37.024966+00:00", "meta": {"OBJECT_NAME": "EUTELSAT 7B", "OBJECT_ID": "2013-022A", "EPOCH": "2025-12-27T06:13:38.544096", "MEAN_MOTION": 1.0027195, "ECCENTRICITY": 0.0004788, "INCLINATION": 0.0674, "RA_OF_ASC_NODE": 13.757, "ARG_OF_PERICENTER": 308.486, "MEAN_ANOMALY": 234.1547, "EPHEMERIS_TYPE": 0, "CLASSIFICATION_TYPE": "U", "NORAD_CAT_ID": 39163, "ELEMENT_SET_NO": 999, "REV_AT_EPOCH": 4622, "BSTAR": 0, "MEAN_MOTION_DOT": 7e-07, "MEAN_MOTION_DDOT": 0}, "tle": {"line1": "1 39163U 13022A   25361.25947389  .00000070  00000+0  00000+0 0  9999", "line2": "2 39163   0.0674  13.7570 0004788 308.4860 234.1547  1.00271950 46225"}}, "geometry": {"type": "Point", "coordinates": [95.38184856054912, 0.0860706686792969]}}, {"type": "Feature", "properties": {"norad_id": 39612, "name": "EXPRESS-AT1", "group": "eutelsat", "lat": -0.0011132132829506645, "lon": 144.34913980189958, "alt_km": 35780.86518183565, "timestamp": "2025-12-27T23:26:37.024978+00:00", "meta": {"OBJECT_NAME": "EXPRESS-AT1", "OBJECT_ID": "2014-010A", "EPOCH": "2025-12-27T11:33:21.127392", "MEAN_MOTION": 1.0027232, "ECCENTRICITY": 0.0001194, "INCLINATION": 0.02, "RA_OF_ASC_NODE": 271.5244, "ARG_OF_PERICENTER": 229.6651, "MEAN_ANOMALY": 184.3605, "EPHEMERIS_TYPE": 0, "CLASSIFICATION_TYPE": "U", "NORAD_CAT_ID": 39612, "ELEMENT_SET_NO": 999, "REV_AT_EPOCH": 4309, "BSTAR": 0, "MEAN_MOTION_DOT": 1.01e-06, "MEAN_MOTION_DDOT": 0}, "tle": {"line1": "1 39612U 14010A   25361.48149453  .00000101  00000+0  00000+0 0  9992", "line2": "2 39612   0.0200 271.5244 0001194 229.6651 184.3605  1.00272320 43096"}}, "geometry": {"type": "Point", "coordinates": [144.34913980189958, -0.0011132132829506645]}}, {"type": "Feature", "properties": {"norad_id": 39613, "name": "EXPRESS-AT2", "group": "eutelsat", "lat": -0.030203129464038782, "lon": -131.81129307516133, "alt_km": 35781.683518099664, "timestamp": "2025-12-27T23:26:37.024990+00:00", "meta": {"OBJECT_NAME": "EXPRESS-AT2", "OBJECT_ID": "2014-010B", "EPOCH": "2025-12-27T13:02:38.745600", "MEAN_MOTION": 1.00270641, "ECCENTRICITY": 0.0001718, "INCLINATION": 0.0181, "RA_OF_ASC_NODE": 330.0863, "ARG_OF_PERICENTER": 307.1108, "MEAN_ANOMALY": 154.5958, "EPHEMERIS_TYPE": 0, "CLASSIFICATION_TYPE": "U", "NORAD_CAT_ID": 39613, "ELEMENT_SET_NO": 999, "REV_AT_EPOCH": 4277, "BSTAR": 0, "MEAN_MOTION_DOT": -2.59e-06, "MEAN_MOTION_DDOT": 0}, "tle": {"line1": "1 39613U 14010B   25361.54350400 -.00000259  00000+0  00000+0 0  9991", "line2": "2 39613   0.0181 330.0863 0001718 307.1108 154.5958  1.00270641 42772"}}, "geometry": {"type": "Point", "coordinates": [-131.81129307516133, -0.030203129464038782]}}, {"type": "Feature", "properties": {"norad_id": 39773, "name": "EUTELSAT 3B", "group": "eutelsat", "lat": 0.07828563661767812, "lon": 91.40763105930408, "alt_km": 35801.35237039209, "timestamp": "2025-12-27T23:26:37.025002+00:00", "meta": {"OBJECT_NAME": "EUTELSAT 3B", "OBJECT_ID": "2014-030A", "EPOCH": "2025-12-27T06:13:38.544096", "MEAN_MOTION": 1.00270423, "ECCENTRICITY": 0.0004288, "INCLINATION": 0.06, "RA_OF_ASC_NODE": 354.4554, "ARG_OF_PERICENTER": 242.3493, "MEAN_ANOMALY": 315.6906, "EPHEMERIS_TYPE": 0, "CLASSIFICATION_TYPE": "U", "NORAD_CAT_ID": 39773, "ELEMENT_SET_NO": 999, "REV_AT_EPOCH": 4234, "BSTAR": 0, "MEAN_MOTION_DOT": 4.2e-07, "MEAN_MOTION_DDOT": 0}, "tle": {"line1": "1 39773U 14030A   25361.25947389  .00000042  00000+0  00000+0 0  9995", "line2": "2 39773   0.0600 354.4554 0004288 242.3493 315.6906  1.00270423 42348"}}, "geometry": {"type": "Point", "coordinates": [91.40763105930408, 0.07828563661767812]}}, {"type": "Feature", "properties": {"norad_id": 40425, "name": "EUTELSAT 115 WEST B", "group": "eutelsat", "lat": 0.002130041059316772, "lon": -26.549048952472276, "alt_km": 35785.41832329958, "timestamp": "2025-12-27T23:26:37.025014+00:00", "meta": {"OBJECT_NAME": "EUTELSAT 115 WEST B", "OBJECT_ID": "2015-010B", "EPOCH": "2025-12-26T05:44:38.581152", "MEAN_MOTION": 1.00273604, "ECCENTRICITY": 7.8e-06, "INCLINATION": 0.0077, "RA_OF_ASC_NODE": 147.8651, "ARG_OF_PERICENTER": 258.8043, "MEAN_ANOMALY": 19.571, "EPHEMERIS_TYPE": 0, "CLASSIFICATION_TYPE": "U", "NORAD_CAT_ID": 40425, "ELEMENT_SET_NO": 999, "REV_AT_EPOCH": 3965, "BSTAR": 0, "MEAN_MOTION_DOT": -3e-08, "MEAN_MOTION_DDOT": 0}, "tle": {"line1": "1 40425U 15010B   25360.23933543 -.00000003  00000+0  00000+0 0  9992", "line2": "2 40425   0.0077 147.8651 0000078 258.8043  19.5710  1.00273604 39657"}}, "geometry": {"type": "Point", "coordinates": [-26.549048952472276, 0.002130041059316772]}}, {"type": "Feature", "properties": {"norad_id": 40875, "name": "EUTELSAT 8 WEST B", "group": "eutelsat", "lat": 0.0789845426551931, "lon": 80.3561151520792, "alt_km": 35803.22874052897, "timestamp": "2025-12-27T23:26:37.025027+00:00", "meta": {"OBJECT_NAME": "EUTELSAT 8 WEST B", "OBJECT_ID": "2015-039B", "EPOCH": "2025-12-27T06:06:52.392384", "MEAN_MOTION": 1.00271434, "ECCENTRICITY": 0.0004196, "INCLINATION": 0.0657, "RA_OF_ASC_NODE": 13.5765, "ARG_OF_PERICENTER": 262.8857, "MEAN_ANOMALY": 263.2409, "EPHEMERIS_TYPE": 0, "CLASSIFICATION_TYPE": "U", "NORAD_CAT_ID": 40875, "ELEMENT_SET_NO": 999, "REV_AT_EPOCH": 3793, "BSTAR": 0, "MEAN_MOTION_DOT": -4.3e-07, "MEAN_MOTION_DDOT": 0}, "tle": {"line1": "1 40875U 15039B   25361.25477306 -.00000043  00000+0  00000+0 0  9999", "line2": "2 40875   0.0657  13.5765 0004196 262.8857 263.2409  1.00271434 37939"}}, "geometry": {"type": "Point", "coordinates": [80.3561151520792, 0.0789845426551931]}}, {"type": "Feature", "properties": {"norad_id": 41310, "name": "EUTELSAT 9B", "group": "eutelsat", "lat": 0.03835948374242237, "lon": 97.33056928112627, "alt_km": 35806.6727637637, "timestamp": "2025-12-27T23:26:37.025039+00:00", "meta": {"OBJECT_NAME": "EUTELSAT 9B", "OBJECT_ID": "2016-005A", "EPOCH": "2025-12-27T06:13:38.544096", "MEAN_MOTION": 1.00270106, "ECCENTRICITY": 0.0004769, "INCLINATION": 0.0298, "RA_OF_ASC_NODE": 51.1118, "ARG_OF_PERICENTER": 224.9005, "MEAN_ANOMALY": 282.38, "EPHEMERIS_TYPE": 0, "CLASSIFICATION_TYPE": "U", "NORAD_CAT_ID": 41310, "ELEMENT_SET_NO": 999, "REV_AT_EPOCH": 3639, "BSTAR": 0, "MEAN_MOTION_DOT": 8.4e-07, "MEAN_MOTION_DDOT": 0}, "tle": {"line1": "1 41310U 16005A   25361.25947389  .00000084  00000+0  00000+0 0  9995", "line2": "2 41310   0.0298  51.1118 0004769 224.9005 282.3800  1.00270106 36396"}}, "geometry": {"type": "Point", "coordinates": [97.33056928112627, 0.03835948374242237]}}, {"type": "Feature", "properties": {"norad_id": 41382, "name": "EUTELSAT 65 WEST A", "group": "eutelsat", "lat": 0.03189629553643033, "lon": 23.18902538187913, "alt_km": 35788.828053683836, "timestamp": "2025-12-27T23:26:37.025061+00:00", "meta": {"OBJECT_NAME": "EUTELSAT 65 WEST A", "OBJECT_ID": "2016-014A", "EPOCH": "2025-12-27T10:58:46.937280", "MEAN_MOTION": 1.00270645, "ECCENTRICITY": 0.0002442, "INCLINATION": 0.047, "RA_OF_ASC_NODE": 350.7125, "ARG_OF_PERICENTER": 289.2304, "MEAN_ANOMALY": 275.7579, "EPHEMERIS_TYPE": 0, "CLASSIFICATION_TYPE": "U", "NORAD_CAT_ID": 41382, "ELEMENT_SET_NO": 999, "REV_AT_EPOCH": 3581, "BSTAR": 0, "MEAN_MOTION_DOT": -2.54e-06, "MEAN_MOTION_DDOT": 0}, "tle": {"line1": "1 41382U 16014A   25361.45748770 -.00000254  00000+0  00000+0 0  9999", "line2": "2 41382   0.0470 350.7125 0002442 289.2304 275.7579  1.00270645 35818"}}, "geometry": {"type": "Point", "coordinates": [23.18902538187913, 0.03189629553643033]}}, {"type": "Feature", "properties": {"norad_id": 41589, "name": "EUTELSAT 117 WEST B", "group": "eutelsat", "lat": 0.00596994010207611, "lon": -28.651685859237638, "alt_km": 35785.88509353024, "timestamp": "2025-12-27T23:26:37.025089+00:00", "meta": {"OBJECT_NAME": "EUTELSAT 117 WEST B", "OBJECT_ID": "2016-038B", "EPOCH": "2025-12-27T07:38:14.830080", "MEAN_MOTION": 1.00273464, "ECCENTRICITY": 1.53e-05, "INCLINATION": 0.0038, "RA_OF_ASC_NODE": 165.68, "ARG_OF_PERICENTER": 47.668, "MEAN_ANOMALY": 240.2602, "EPHEMERIS_TYPE": 0, "CLASSIFICATION_TYPE": "U", "NORAD_CAT_ID": 41589, "ELEMENT_SET_NO": 999, "REV_AT_EPOCH": 3494, "BSTAR": 0, "MEAN_MOTION_DOT": 1.1e-07, "MEAN_MOTION_DDOT": 0}, "tle": {"line1": "1 41589U 16038B   25361.31822720  .00000011  00000+0  00000+0 0  9997", "line2": "2 41589   0.0038 165.6800 0000153  47.6680 240.2602  1.00273464 34949"}}, "geometry": {"type": "Point", "coordinates": [-28.651685859237638, 0.00596994010207611]}}]}